[
    {
        "Altitude(m)": 716955.070205342,
        "Argument of Periapsis(deg)": 0.007973084830638947,
        "Eccentricity": 0.0,
        "Inclination(deg)": 45.0,
        "Latitude(deg)": -42.91284639341364,
        "Longitude(deg)": 26.846024003037286,
        "Mean Anomaly(deg)": -73.74494834676345,
        "RAAN(deg)": 194.99247364097926,
        "Satellite Name": "Constellation 1 875",
        "Satellite Number": 875,
        "Semi-Major Axis(m)": 7083131.272910544,
        "Time(s)": 133
    },
    {
        "Altitude(m)": 716948.2907565542,
        "Argument of Periapsis(deg)": 0.008033032836884352,
        "Eccentricity": 0.0,
        "Inclination(deg)": 45.0,
        "Latitude(deg)": -42.89648411810115,
        "Longitude(deg)": 26.921326212904955,
        "Mean Anomaly(deg)": -73.68424720651352,
        "RAAN(deg)": 194.9924170518137,
        "Satellite Name": "Constellation 1 875",
        "Satellite Number": 875,
        "Semi-Major Axis(m)": 7083131.272910544,
        "Time(s)": 134
    },
    {
        "Altitude(m)": 716941.488337623,
        "Argument of Periapsis(deg)": 0.008092980843129758,
        "Eccentricity": 0.0,
        "Inclination(deg)": 45.0,
        "Latitude(deg)": -42.8800667495139,
        "Longitude(deg)": 26.996586473031815,
        "Mean Anomaly(deg)": -73.62354606626363,
        "RAAN(deg)": 194.9923604626481,
        "Satellite Name": "Constellation 1 875",
        "Satellite Number": 875,
        "Semi-Major Axis(m)": 7083131.272910544,
        "Time(s)": 135
    },
    {
        "Altitude(m)": 716934.6629735267,
        "Argument of Periapsis(deg)": 0.008152928849375162,
        "Eccentricity": 0.0,
        "Inclination(deg)": 45.0,
        "Latitude(deg)": -42.863594347646895,
        "Longitude(deg)": 27.071804689060965,
        "Mean Anomaly(deg)": -73.5628449260137,
        "RAAN(deg)": 194.99230387348254,
        "Satellite Name": "Constellation 1 875",
        "Satellite Number": 875,
        "Semi-Major Axis(m)": 7083131.272910544,
        "Time(s)": 136
    },
    {
        "Altitude(m)": 716927.8146893359,
        "Argument of Periapsis(deg)": 0.008212876855620568,
        "Eccentricity": 0.0,
        "Inclination(deg)": 45.0,
        "Latitude(deg)": -42.847066972614535,
        "Longitude(deg)": 27.146980767192943,
        "Mean Anomaly(deg)": -73.50214378576382,
        "RAAN(deg)": 194.992247284317,
        "Satellite Name": "Constellation 1 875",
        "Satellite Number": 875,
        "Semi-Major Axis(m)": 7083131.272910544,
        "Time(s)": 137
    },
    {
        "Altitude(m)": 716920.9435102037,
        "Argument of Periapsis(deg)": 0.008272824861865974,
        "Eccentricity": 0.0,
        "Inclination(deg)": 45.0,
        "Latitude(deg)": -42.830484684649655,
        "Longitude(deg)": 27.222114614186786,
        "Mean Anomaly(deg)": -73.44144264551394,
        "RAAN(deg)": 194.9921906951514,
        "Satellite Name": "Constellation 1 875",
        "Satellite Number": 875,
        "Semi-Major Axis(m)": 7083131.272910544,
        "Time(s)": 138
    },
    {
        "Altitude(m)": 716914.0494613665,
        "Argument of Periapsis(deg)": 0.00833277286811138,
        "Eccentricity": 0.0,
        "Inclination(deg)": 45.0,
        "Latitude(deg)": -42.813847544102806,
        "Longitude(deg)": 27.297206137359492,
        "Mean Anomaly(deg)": -73.3807415052641,
        "RAAN(deg)": 194.99213410598585,
        "Satellite Name": "Constellation 1 875",
        "Satellite Number": 875,
        "Semi-Major Axis(m)": 7083131.272910544,
        "Time(s)": 139
    },
    {
        "Altitude(m)": 716907.1325681407,
        "Argument of Periapsis(deg)": 0.008392720874356788,
        "Eccentricity": 0.0,
        "Inclination(deg)": 45.0,
        "Latitude(deg)": -42.79715561144109,
        "Longitude(deg)": 27.372255244586338,
        "Mean Anomaly(deg)": -73.32004036501412,
        "RAAN(deg)": 194.99207751682025,
        "Satellite Name": "Constellation 1 875",
        "Satellite Number": 875,
        "Semi-Major Axis(m)": 7083131.272910544,
        "Time(s)": 140
    },
    {
        "Altitude(m)": 716900.1928559302,
        "Argument of Periapsis(deg)": 0.008452668880602192,
        "Eccentricity": 0.0,
        "Inclination(deg)": 45.0,
        "Latitude(deg)": -42.780408947247864,
        "Longitude(deg)": 27.44726167620325,
        "Mean Anomaly(deg)": -73.25933922476429,
        "RAAN(deg)": 194.9920209276547,
        "Satellite Name": "Constellation 1 875",
        "Satellite Number": 875,
        "Semi-Major Axis(m)": 7083131.272910544,
        "Time(s)": 141
    },
    {
        "Altitude(m)": 716893.2303502169,
        "Argument of Periapsis(deg)": 0.008512616886847598,
        "Eccentricity": 0.0,
        "Inclination(deg)": 45.0,
        "Latitude(deg)": -42.76360761222043,
        "Longitude(deg)": 27.522225677395493,
        "Mean Anomaly(deg)": -73.19863808451433,
        "RAAN(deg)": 194.99196433848914,
        "Satellite Name": "Constellation 1 875",
        "Satellite Number": 875,
        "Semi-Major Axis(m)": 7083131.272910544,
        "Time(s)": 142
    },
    {
        "Altitude(m)": 716886.2450765714,
        "Argument of Periapsis(deg)": 0.008572564893093004,
        "Eccentricity": 0.0,
        "Inclination(deg)": 45.0,
        "Latitude(deg)": -42.74675166717113,
        "Longitude(deg)": 27.59714698961504,
        "Mean Anomaly(deg)": -73.13793694426447,
        "RAAN(deg)": 194.99190774932356,
        "Satellite Name": "Constellation 1 875",
        "Satellite Number": 875,
        "Semi-Major Axis(m)": 7083131.272910544,
        "Time(s)": 143
    },
    {
        "Altitude(m)": 716879.2370606414,
        "Argument of Periapsis(deg)": 0.008632512899338408,
        "Eccentricity": 0.0,
        "Inclination(deg)": 45.0,
        "Latitude(deg)": -42.729841173025,
        "Longitude(deg)": 27.672025522969214,
        "Mean Anomaly(deg)": -73.0772358040145,
        "RAAN(deg)": 194.991851160158,
        "Satellite Name": "Constellation 1 875",
        "Satellite Number": 875,
        "Semi-Major Axis(m)": 7083131.272910544,
        "Time(s)": 144
    },
    {
        "Altitude(m)": 716872.206328162,
        "Argument of Periapsis(deg)": 0.008692460905583814,
        "Eccentricity": 0.0,
        "Inclination(deg)": 45.0,
        "Latitude(deg)": -42.71287619081947,
        "Longitude(deg)": 27.746861188122516,
        "Mean Anomaly(deg)": -73.01653466376466,
        "RAAN(deg)": 194.99179457099245,
        "Satellite Name": "Constellation 1 875",
        "Satellite Number": 875,
        "Semi-Major Axis(m)": 7083131.272910544,
        "Time(s)": 145
    },
    {
        "Altitude(m)": 716865.1529049386,
        "Argument of Periapsis(deg)": 0.00875240891182922,
        "Eccentricity": 0.0,
        "Inclination(deg)": 45.0,
        "Latitude(deg)": -42.69585678170324,
        "Longitude(deg)": 27.821653896297846,
        "Mean Anomaly(deg)": -72.95583352351477,
        "RAAN(deg)": 194.99173798182684,
        "Satellite Name": "Constellation 1 875",
        "Satellite Number": 875,
        "Semi-Major Axis(m)": 7083131.272910544,
        "Time(s)": 146
    },
    {
        "Altitude(m)": 716858.0768168849,
        "Argument of Periapsis(deg)": 0.008812356918074627,
        "Eccentricity": 0.0,
        "Inclination(deg)": 45.0,
        "Latitude(deg)": -42.67878300693552,
        "Longitude(deg)": 27.896403559275175,
        "Mean Anomaly(deg)": -72.89513238326491,
        "RAAN(deg)": 194.9916813926613,
        "Satellite Name": "Constellation 1 875",
        "Satellite Number": 875,
        "Semi-Major Axis(m)": 7083131.272910544,
        "Time(s)": 147
    },
    {
        "Altitude(m)": 716850.9780899647,
        "Argument of Periapsis(deg)": 0.008872304924320031,
        "Eccentricity": 0.0,
        "Inclination(deg)": 45.0,
        "Latitude(deg)": -42.66165492788539,
        "Longitude(deg)": 27.97110992129557,
        "Mean Anomaly(deg)": -72.83443124301495,
        "RAAN(deg)": 194.9916248034957,
        "Satellite Name": "Constellation 1 875",
        "Satellite Number": 875,
        "Semi-Major Axis(m)": 7083131.272910544,
        "Time(s)": 148
    },
    {
        "Altitude(m)": 716843.856750244,
        "Argument of Periapsis(deg)": 0.008932252930565437,
        "Eccentricity": 0.0,
        "Inclination(deg)": 45.0,
        "Latitude(deg)": -42.64447260602981,
        "Longitude(deg)": 28.0457732314477,
        "Mean Anomaly(deg)": -72.77373010276499,
        "RAAN(deg)": 194.99156821433016,
        "Satellite Name": "Constellation 1 875",
        "Satellite Number": 875,
        "Semi-Major Axis(m)": 7083131.272910544,
        "Time(s)": 149
    },
    {
        "Altitude(m)": 716836.712823874,
        "Argument of Periapsis(deg)": 0.008992200936810843,
        "Eccentricity": 0.0,
        "Inclination(deg)": 45.0,
        "Latitude(deg)": -42.62723610295442,
        "Longitude(deg)": 28.120393235086762,
        "Mean Anomaly(deg)": -72.71302896251515,
        "RAAN(deg)": 194.9915116251646,
        "Satellite Name": "Constellation 1 875",
        "Satellite Number": 875,
        "Semi-Major Axis(m)": 7083131.272910544,
        "Time(s)": 150
    },
    {
        "Altitude(m)": 716829.546337069,
        "Argument of Periapsis(deg)": 0.009052148943056249,
        "Eccentricity": 0.0,
        "Inclination(deg)": 45.0,
        "Latitude(deg)": -42.60994548035149,
        "Longitude(deg)": 28.19496984622231,
        "Mean Anomaly(deg)": -72.65232782226526,
        "RAAN(deg)": 194.991455035999,
        "Satellite Name": "Constellation 1 875",
        "Satellite Number": 875,
        "Semi-Major Axis(m)": 7083131.272910544,
        "Time(s)": 151
    }
]